NORAD_CAT_ID,OBJECT_NAME,OBJECT_TYPE,EPOCH,MEAN_MOTION,ECCENTRICITY,INCLINATION,RA_OF_ASC_NODE,ARG_OF_PERICENTER,MEAN_ANOMALY,BSTAR,MEAN_MOTION_DOT,MEAN_MOTION_DDOT,TLE_LINE0,TLE_LINE1,TLE_LINE2,SEMIMAJOR_AXIS,PERIOD,APOGEE,PERIGEE,DECAYED
55280.0,STARLINK-5331,PAYLOAD,2024-01-12 19:43:30,14.98338754,0.0002368,69.9984,228.3064,268.5261,91.5626,-5.2646e-05,-7.21e-06,0.0,0 STARLINK-5331,1 55280U 23010M   24012.82188405 -.00000721  00000-0 -52646-4 0  9990,2 55280  69.9984 228.3064 0002368 268.5261  91.5626 14.98338754 54607,6950.166,96.106,573.677,570.385,0.0
55280.0,STARLINK-5331,PAYLOAD,2024-01-12 21:19:38,14.98338012,0.0002389,69.9985,228.1383,269.2277,90.8608,-6.1336e-05,-8.25e-06,0.0,0 STARLINK-5331,1 55280U 23010M   24012.88864444 -.00000825  00000-0 -61336-4 0  9991,2 55280  69.9985 228.1383 0002389 269.2277  90.8608 14.98338012 54922,6950.168,96.106,573.694,570.373,0.0
55280.0,STARLINK-5331,PAYLOAD,2024-01-13 14:57:07,14.98329319,0.0002351,69.9987,226.287,271.4266,88.6623,1.1176e-05,4e-07,0.0,0 STARLINK-5331,1 55280U 23010M   24013.62300553  .00000040  00000-0  11176-4 0  9994,2 55280  69.9987 226.2870 0002351 271.4266  88.6623 14.98329319 55031,6950.195,96.107,573.694,570.426,0.0
55280.0,STARLINK-5331,PAYLOAD,2024-01-13 18:09:23,14.98329301,0.0002369,69.9987,225.9501,270.6145,89.4743,9.2459e-06,1.7e-07,0.0,0 STARLINK-5331,1 55280U 23010M   24013.75652547  .00000017  00000-0  92459-5 0  9999,2 55280  69.9987 225.9501 0002369 270.6145  89.4743 14.98329301 54744,6950.195,96.107,573.707,570.414,0.0
55280.0,STARLINK-5331,PAYLOAD,2024-01-14 14:59:08,14.98334314,0.0002384,69.9989,223.7628,265.7816,94.3071,2.1639e-05,1.65e-06,0.0,0 STARLINK-5331,1 55280U 23010M   24014.62440089  .00000165  00000-0  21639-4 0  9997,2 55280  69.9989 223.7628 0002384 265.7816  94.3071 14.98334314 55187,6950.18,96.107,573.701,570.388,0.0
55280.0,STARLINK-5331,PAYLOAD,2024-01-14 19:47:32,14.98334466,0.0002382,69.9989,223.2577,265.2415,94.8472,2.3963e-05,1.93e-06,0.0,0 STARLINK-5331,1 55280U 23010M   24014.82468011  .00000193  00000-0  23963-4 0  9997,2 55280  69.9989 223.2577 0002382 265.2415  94.8472 14.98334466 54900,6950.179,96.107,573.7,570.389,0.0
55280.0,STARLINK-5331,PAYLOAD,2024-01-14 21:23:40,14.983353,0.0002367,69.9989,223.0893,264.8641,95.2248,3.4191e-05,3.15e-06,0.0,0 STARLINK-5331,1 55280U 23010M   24014.89143909  .00000315  00000-0  34191-4 0  9991,2 55280  69.9989 223.0893 0002367 264.8641  95.2248 14.98335300 55228,6950.177,96.107,573.687,570.396,0.0
55280.0,STARLINK-5331,PAYLOAD,2024-01-15 15:01:09,14.98329667,0.0002359,69.9988,221.2376,264.3574,95.7317,2.6769e-05,2.26e-06,0.0,0 STARLINK-5331,1 55280U 23010M   24015.62580136  .00000226  00000-0  26769-4 0  9993,2 55280  69.9988 221.2376 0002359 264.3574  95.7317 14.98329667 55337,6950.194,96.107,573.698,570.419,0.0
55280.0,STARLINK-5331,PAYLOAD,2024-01-15 19:49:33,14.98329101,0.0002406,69.9989,220.7327,267.3269,92.7614,1.5189e-05,8.8e-07,0.0,0 STARLINK-5331,1 55280U 23010M   24015.82608207  .00000088  00000-0  15189-4 0  9995,2 55280  69.9989 220.7327 0002406 267.3269  92.7614 14.98329101 55054,6950.196,96.107,573.733,570.388,0.0
55280.0,STARLINK-5331,PAYLOAD,2024-01-15 21:25:41,14.98328782,0.0002426,69.9991,220.5647,269.6306,90.4575,9.4091e-06,1.9e-07,0.0,0 STARLINK-5331,1 55280U 23010M   24015.89284255  .00000019  00000-0  94091-5 0  9999,2 55280  69.9991 220.5647 0002426 269.6306  90.4575 14.98328782 55379,6950.197,96.107,573.748,570.376,0.0
55280.0,STARLINK-5331,PAYLOAD,2024-01-16 15:03:10,14.98330168,0.0002475,69.9987,218.7125,271.8845,88.203,-5.2615e-05,-7.21e-06,0.0,0 STARLINK-5331,1 55280U 23010M   24016.62720347 -.00000721  00000-0 -52615-4 0  9995,2 55280  69.9987 218.7125 0002475 271.8845  88.2030 14.98330168 55485,6950.192,96.107,573.778,570.337,0.0
55280.0,STARLINK-5331,PAYLOAD,2024-01-16 19:51:34,14.983296,0.0002492,69.9988,218.2074,271.8366,88.2507,-5.6278e-05,-7.64e-06,0.0,0 STARLINK-5331,1 55280U 23010M   24016.82748385 -.00000764  00000-0 -56278-4 0  9995,2 55280  69.9988 218.2074 0002492 271.8366  88.2507 14.98329600 55209,6950.194,96.107,573.791,570.327,0.0
55280.0,STARLINK-5331,PAYLOAD,2024-01-16 21:27:42,14.98329532,0.0002492,69.9988,218.0391,271.8902,88.1972,-5.5864e-05,-7.59e-06,0.0,0 STARLINK-5331,1 55280U 23010M   24016.89424386 -.00000759  00000-0 -55864-4 0  9998,2 55280  69.9988 218.0391 0002492 271.8902  88.1972 14.98329532 55529,6950.194,96.107,573.791,570.327,0.0
55280.0,STARLINK-5331,PAYLOAD,2024-01-17 15:05:11,14.98331135,0.0002556,69.9989,216.1876,272.6351,87.4516,2.9388e-05,2.58e-06,0.0,0 STARLINK-5331,1 55280U 23010M   24017.62860034  .00000258  00000-0  29388-4 0  9998,2 55280  69.9989 216.1876 0002556 272.6351  87.4516 14.98331135 55635,6950.189,96.107,573.831,570.278,0.0
55280.0,STARLINK-5331,PAYLOAD,2024-01-17 19:53:35,14.98331838,0.0002546,69.999,215.6827,273.01,87.0768,3.9352e-05,3.77e-06,0.0,0 STARLINK-5331,1 55280U 23010M   24017.82887953  .00000377  00000-0  39352-4 0  9993,2 55280  69.9990 215.6827 0002546 273.0100  87.0768 14.98331838 55357,6950.187,96.107,573.822,570.283,0.0
55280.0,STARLINK-5331,PAYLOAD,2024-01-17 21:29:43,14.98332353,0.000254,69.999,215.5144,273.1043,86.9826,4.5189e-05,4.46e-06,0.0,0 STARLINK-5331,1 55280U 23010M   24017.89563892  .00000446  00000-0  45189-4 0  9995,2 55280  69.9990 215.5144 0002540 273.1043  86.9826 14.98332353 55670,6950.186,96.107,573.816,570.285,0.0
55280.0,STARLINK-5331,PAYLOAD,2024-01-18 13:31:03,14.98332123,0.0002556,69.999,213.8317,272.7946,87.292,6.4724e-05,6.79e-06,0.0,0 STARLINK-5331,1 55280U 23010M   24018.56323766  .00000679  00000-0  64724-4 0  9998,2 55280  69.9990 213.8317 0002556 272.7946  87.2920 14.98332123 55772,6950.186,96.107,573.828,570.275,0.0
55280.0,STARLINK-5331,PAYLOAD,2024-01-18 19:55:35,14.98333749,0.0002534,69.9991,213.1587,273.4588,86.6281,8.2029e-05,8.86e-06,0.0,0 STARLINK-5331,1 55280U 23010M   24018.83027575  .00000886  00000-0  82029-4 0  9995,2 55280  69.9991 213.1587 0002534 273.4588  86.6281 14.98333749 55500,6950.181,96.107,573.807,570.285,0.0
55280.0,STARLINK-5331,PAYLOAD,2024-01-18 21:31:43,14.98333217,0.0002547,69.9991,212.9902,273.9662,86.1206,7.3654e-05,7.86e-06,0.0,0 STARLINK-5331,1 55280U 23010M   24018.89703617  .00000786  00000-0  73654-4 0  9992,2 55280  69.9991 212.9902 0002547 273.9662  86.1206 14.98333217 55827,6950.183,96.107,573.818,570.278,0.0
55280.0,STARLINK-5331,PAYLOAD,2024-01-19 13:33:04,14.98331692,0.0002418,69.9994,211.3075,274.9489,85.1394,-2.9322e-06,-1.28e-06,0.0,0 STARLINK-5331,1 55280U 23010M   24019.56463837 -.00000128  00000-0 -29322-5 0  9990,2 55280  69.9994 211.3075 0002418 274.9489  85.1394 14.98331692 55922,6950.188,96.107,573.733,570.372,0.0
55280.0,STARLINK-5331,PAYLOAD,2024-01-19 19:57:37,14.98330887,0.0002443,69.9994,210.6342,273.7752,86.3128,-1.4092e-05,-2.61e-06,0.0,0 STARLINK-5331,1 55280U 23010M   24019.83167872 -.00000261  00000-0 -14092-4 0  9995,2 55280  69.9994 210.6342 0002443 273.7752  86.3128 14.98330887 55652,6950.19,96.107,573.753,570.357,0.0
55280.0,STARLINK-5331,PAYLOAD,2024-01-19 21:33:45,14.98330647,0.0002444,69.9994,210.4659,273.7209,86.3671,-1.6898e-05,-2.95e-06,0.0,0 STARLINK-5331,1 55280U 23010M   24019.89843886 -.00000295  00000-0 -16898-4 0  9990,2 55280  69.9994 210.4659 0002444 273.7209  86.3671 14.98330647 55971,6950.191,96.107,573.755,570.357,0.0
55280.0,STARLINK-5331,PAYLOAD,2024-01-20 15:11:13,14.98330393,0.0002437,69.9993,208.6145,269.1446,90.9434,-3.813e-05,-5.48e-06,0.0,0 STARLINK-5331,1 55280U 23010M   24020.63279861 -.00000548  00000-0 -38130-4 0  9994,2 55280  69.9993 208.6145 0002437 269.1446  90.9434 14.98330393 56082,6950.192,96.107,573.75,570.363,0.0
55280.0,STARLINK-5331,PAYLOAD,2024-01-20 19:59:37,14.9833065,0.0002432,69.9993,208.1095,268.8685,91.2195,-3.1789e-05,-4.72e-06,0.0,0 STARLINK-5331,1 55280U 23010M   24020.83307818 -.00000472  00000-0 -31789-4 0  9999,2 55280  69.9993 208.1095 0002432 268.8685  91.2195 14.98330650 55800,6950.191,96.107,573.746,570.366,0.0
55280.0,STARLINK-5331,PAYLOAD,2024-01-20 21:35:46,14.98330622,0.0002431,69.9993,207.9412,268.8735,91.2146,-3.1484e-05,-4.69e-06,0.0,0 STARLINK-5331,1 55280U 23010M   24020.89983811 -.00000469  00000-0 -31484-4 0  9996,2 55280  69.9993 207.9412 0002431 268.8735  91.2146 14.98330622 56126,6950.191,96.107,573.746,570.366,0.0
55280.0,STARLINK-5331,PAYLOAD,2024-01-21 20:01:38,14.98330681,0.000248,69.9993,205.5844,267.7527,92.3348,3.721e-05,3.51e-06,0.0,0 STARLINK-5331,1 55280U 23010M   24021.83447573  .00000351  00000-0  37210-4 0  9992,2 55280  69.9993 205.5844 0002480 267.7527  92.3348 14.98330681 55951,6950.191,96.107,573.779,570.332,0.0
55280.0,STARLINK-5331,PAYLOAD,2024-01-21 21:37:46,14.98331069,0.0002532,69.9991,205.4157,270.3068,89.7801,3.5987e-05,3.36e-06,0.0,0 STARLINK-5331,1 55280U 23010M   24021.90123545  .00000336  00000-0  35987-4 0  9992,2 55280  69.9991 205.4157 0002532 270.3068  89.7801 14.98331069 56274,6950.19,96.107,573.814,570.295,0.0
55280.0,STARLINK-5331,PAYLOAD,2024-01-22 20:03:39,14.98328397,0.0002512,69.9994,203.0596,269.4192,90.668,1.7991e-05,1.22e-06,0.0,0 STARLINK-5331,1 55280U 23010M   24022.83587816  .00000122  00000-0  17991-4 0  9998,2 55280  69.9994 203.0596 0002512 269.4192  90.6680 14.98328397 56101,6950.198,96.107,573.809,570.317,0.0
55280.0,STARLINK-5331,PAYLOAD,2024-01-22 21:39:47,14.98328182,0.0002515,69.9994,202.8913,269.6229,90.4642,1.4374e-05,7.9e-07,0.0,0 STARLINK-5331,1 55280U 23010M   24022.90263831  .00000079  00000-0  14374-4 0  9997,2 55280  69.9994 202.8913 0002515 269.6229  90.4642 14.98328182 56420,6950.199,96.107,573.811,570.316,0.0
55280.0,STARLINK-5331,PAYLOAD,2024-01-23 21:41:48,14.98333557,0.0002547,69.9996,200.3668,271.0749,89.0118,3.0561e-05,2.72e-06,0.0,0 STARLINK-5331,1 55280U 23010M   24023.90403362  .00000272  00000-0  30561-4 0  9994,2 55280  69.9996 200.3668 0002547 271.0749  89.0118 14.98333557 56571,6950.182,96.107,573.817,570.277,0.0
